LANDSAT 9               
1 49260U 21088A   24077.22282686  .00000500  00000+0  12108-3 0  9995
2 49260  98.1951 148.3678 0001455  94.7757 265.3607 14.57113620131304
